QIANFAN-33              
1 61566U 24185Q   25334.58061264  .00000429  00000+0  30093-3 0  9995
2 61566  88.9801  80.1611 0007021  21.4937 338.6533 13.96536960 67465
QIANFAN-34              
1 61567U 24185R   25334.59588005  .00000525  00000+0  33402-3 0  9998
2 61567  88.9779  79.7394 0006103  27.8246 332.3259 14.02289308 67651
QIANFAN-35              
1 61568U 24185S   25334.57442255  .00000914  00000+0  36332-3 0  9990
2 61568  88.9804  78.3052 0005356 343.4113  16.6905 14.27932969 68449
QIANFAN-36              
1 61569U 24185T   25334.56250869  .00000218  00000+0  29566-3 0  9996
2 61569  88.9785  82.3109 0007700  84.1881 276.0151 13.55582091 66273
QIANFAN-37              
1 62238U 24232B   25334.62371732  .00000136  00000+0  19201-3 0  9997
2 62238  89.0033  42.5514 0002607 113.0654 247.0772 13.50974512 97532
QIANFAN-38              
1 62239U 24232C   25334.57433762  .00000133  00000+0  18803-3 0  9998
2 62239  89.0039  42.4713 0013549 223.6299 136.3781 13.50977561 97581
QIANFAN-39              
1 62240U 24232D   25334.62976842  .00000542  00000+0  22338-3 0  9999
2 62240  89.0029  38.6935 0018377 116.3598 243.9485 14.25373431 99665
QIANFAN-40              
1 62241U 24232E   25334.60725014  .00000133  00000+0  18754-3 0  9994
2 62241  89.0067  42.0492 0012349 231.6409 128.3633 13.50977167 97954
